{
  "type": "FeatureCollection",
  "features": [
    {
      "type": "Feature",
      "properties": {
        "norad_id": 35705,
        "name": "COSMOS 2251 DEB",
        "group": "cosmos-2251-debris",
        "lat": -22.73227978661943,
        "lon": 136.86966028523827,
        "alt_km": 672.3772462186498,
        "timestamp": "2025-12-08T15:42:50.192640+00:00",
        "meta_object_name": "COSMOS 2251 DEB",
        "meta_object_id": "1993-036AQA",
        "meta_epoch": "2025-12-03T05:18:59.084352",
        "meta_mean_motion": 14.71707631,
        "meta_eccentricity": 0.0034156,
        "meta_inclination": 74.2742,
        "meta_ra_of_asc_node": 154.0557,
        "meta_arg_of_pericenter": 110.0272,
        "meta_mean_anomaly": 250.4584,
        "meta_ephemeris_type": 0,
        "meta_classification_type": "U",
        "meta_norad_cat_id": 35705,
        "meta_element_set_no": 999,
        "meta_rev_at_epoch": 85786,
        "meta_bstar": 0.0035867,
        "meta_mean_motion_dot": 0.00022615,
        "meta_mean_motion_ddot": 0,
        "tle_line1": "1 35705U 93036AQA 25337.22151718  .00022615  00000+0  35867-2 0  9994",
        "tle_line2": "2 35705  74.2742 154.0557 0034156 110.0272 250.4584 14.71707631857866"
      },
      "geometry": {
        "type": "Point",
        "coordinates": [
          136.86966028523827,
          -22.73227978661943
        ]
      }
    },
    {
      "type": "Feature",
      "properties": {
        "norad_id": 35706,
        "name": "COSMOS 2251 DEB",
        "group": "cosmos-2251-debris",
        "lat": -5.34584452204267,
        "lon": 68.00750155941621,
        "alt_km": 1158.4952772375882,
        "timestamp": "2025-12-08T15:42:50.192650+00:00",
        "meta_object_name": "COSMOS 2251 DEB",
        "meta_object_id": "1993-036AQB",
        "meta_epoch": "2025-12-07T23:55:20.458848",
        "meta_mean_motion": 13.65907522,
        "meta_eccentricity": 0.0341168,
        "meta_inclination": 73.8893,
        "meta_ra_of_asc_node": 70.6438,
        "meta_arg_of_pericenter": 121.3453,
        "meta_mean_anomaly": 242.1528,
        "meta_ephemeris_type": 0,
        "meta_classification_type": "U",
        "meta_norad_cat_id": 35706,
        "meta_element_set_no": 999,
        "meta_rev_at_epoch": 61997,
        "meta_bstar": 0.0014535602,
        "meta_mean_motion_dot": 1.759e-05,
        "meta_mean_motion_ddot": 0,
        "tle_line1": "1 35706U 93036AQB 25341.99676457  .00001759  00000+0  14536-2 0  9992",
        "tle_line2": "2 35706  73.8893  70.6438 0341168 121.3453 242.1528 13.65907522619977"
      },
      "geometry": {
        "type": "Point",
        "coordinates": [
          68.00750155941621,
          -5.34584452204267
        ]
      }
    },
    {
      "type": "Feature",
      "properties": {
        "norad_id": 35711,
        "name": "COSMOS 2251 DEB",
        "group": "cosmos-2251-debris",
        "lat": 67.92147260753389,
        "lon": -86.86932927319972,
        "alt_km": 688.4732527144588,
        "timestamp": "2025-12-08T15:42:50.192660+00:00",
        "meta_object_name": "COSMOS 2251 DEB",
        "meta_object_id": "1993-036AQG",
        "meta_epoch": "2025-12-07T22:58:27.397056",
        "meta_mean_motion": 14.63780346,
        "meta_eccentricity": 0.00852914,
        "meta_inclination": 74.0511,
        "meta_ra_of_asc_node": 229.6371,
        "meta_arg_of_pericenter": 331.7264,
        "meta_mean_anomaly": 27.9286,
        "meta_ephemeris_type": 0,
        "meta_classification_type": "U",
        "meta_norad_cat_id": 35711,
        "meta_element_set_no": 999,
        "meta_rev_at_epoch": 87701,
        "meta_bstar": 0.00039815854,
        "meta_mean_motion_dot": 2.156e-05,
        "meta_mean_motion_ddot": 0,
        "tle_line1": "1 35711U 93036AQG 25341.95726154  .00002156  00000+0  39816-3 0  9995",
        "tle_line2": "2 35711  74.0511 229.6371 0085291 331.7264  27.9286 14.63780346877017"
      },
      "geometry": {
        "type": "Point",
        "coordinates": [
          -86.86932927319972,
          67.92147260753389
        ]
      }
    },
    {
      "type": "Feature",
      "properties": {
        "norad_id": 35716,
        "name": "COSMOS 2251 DEB",
        "group": "cosmos-2251-debris",
        "lat": -26.846592126823612,
        "lon": 30.375289926236363,
        "alt_km": 758.3737107055967,
        "timestamp": "2025-12-08T15:42:50.192671+00:00",
        "meta_object_name": "COSMOS 2251 DEB",
        "meta_object_id": "1993-036AQM",
        "meta_epoch": "2025-12-06T21:45:23.385888",
        "meta_mean_motion": 14.60076352,
        "meta_eccentricity": 0.00885119,
        "meta_inclination": 73.9929,
        "meta_ra_of_asc_node": 205.3647,
        "meta_arg_of_pericenter": 47.8534,
        "meta_mean_anomaly": 334.3728,
        "meta_ephemeris_type": 0,
        "meta_classification_type": "U",
        "meta_norad_cat_id": 35716,
        "meta_element_set_no": 999,
        "meta_rev_at_epoch": 87542,
        "meta_bstar": 0.00021173937,
        "meta_mean_motion_dot": 1.043e-05,
        "meta_mean_motion_ddot": 0,
        "tle_line1": "1 35716U 93036AQM 25340.90652067  .00001043  00000+0  21174-3 0  9997",
        "tle_line2": "2 35716  73.9929 205.3647 0088511  47.8534 334.3728 14.60076352875424"
      },
      "geometry": {
        "type": "Point",
        "coordinates": [
          30.375289926236363,
          -26.846592126823612
        ]
      }
    },
    {
      "type": "Feature",
      "properties": {
        "norad_id": 35717,
        "name": "COSMOS 2251 DEB",
        "group": "cosmos-2251-debris",
        "lat": -61.501249655866715,
        "lon": -166.5597049642285,
        "alt_km": 818.6433945841318,
        "timestamp": "2025-12-08T15:42:50.192681+00:00",
        "meta_object_name": "COSMOS 2251 DEB",
        "meta_object_id": "1993-036AQN",
        "meta_epoch": "2025-12-07T23:19:51.167136",
        "meta_mean_motion": 14.38438216,
        "meta_eccentricity": 0.00767279,
        "meta_inclination": 74.16,
        "meta_ra_of_asc_node": 226.2171,
        "meta_arg_of_pericenter": 87.2393,
        "meta_mean_anomaly": 273.7541,
        "meta_ephemeris_type": 0,
        "meta_classification_type": "U",
        "meta_norad_cat_id": 35717,
        "meta_element_set_no": 999,
        "meta_rev_at_epoch": 74031,
        "meta_bstar": 0.0015740157,
        "meta_mean_motion_dot": 4.949e-05,
        "meta_mean_motion_ddot": 0,
        "tle_line1": "1 35717U 93036AQN 25341.97211999  .00004949  00000+0  15740-2 0  9990",
        "tle_line2": "2 35717  74.1600 226.2171 0076727  87.2393 273.7541 14.38438216740319"
      },
      "geometry": {
        "type": "Point",
        "coordinates": [
          -166.5597049642285,
          -61.501249655866715
        ]
      }
    },
    {
      "type": "Feature",
      "properties": {
        "norad_id": 35718,
        "name": "COSMOS 2251 DEB",
        "group": "cosmos-2251-debris",
        "lat": -42.64697243555823,
        "lon": 122.58284655281433,
        "alt_km": 677.0546380730366,
        "timestamp": "2025-12-08T15:42:50.192692+00:00",
        "meta_object_name": "COSMOS 2251 DEB",
        "meta_object_id": "1993-036AQP",
        "meta_epoch": "2025-12-07T03:56:54.575520",
        "meta_mean_motion": 14.6849943,
        "meta_eccentricity": 0.00115176,
        "meta_inclination": 74.0311,
        "meta_ra_of_asc_node": 140.7573,
        "meta_arg_of_pericenter": 190.0209,
        "meta_mean_anomaly": 170.0733,
        "meta_ephemeris_type": 0,
        "meta_classification_type": "U",
        "meta_norad_cat_id": 35718,
        "meta_element_set_no": 999,
        "meta_rev_at_epoch": 65758,
        "meta_bstar": 0.0025274033,
        "meta_mean_motion_dot": 0.00014666,
        "meta_mean_motion_ddot": 0,
        "tle_line1": "1 35718U 93036AQP 25341.16452055  .00014666  00000+0  25274-2 0  9992",
        "tle_line2": "2 35718  74.0311 140.7573 0011517 190.0209 170.0733 14.68499430657585"
      },
      "geometry": {
        "type": "Point",
        "coordinates": [
          122.58284655281433,
          -42.64697243555823
        ]
      }
    },
    {
      "type": "Feature",
      "properties": {
        "norad_id": 35721,
        "name": "COSMOS 2251 DEB",
        "group": "cosmos-2251-debris",
        "lat": 56.21135639201315,
        "lon": -20.212964674896007,
        "alt_km": 859.8736263487217,
        "timestamp": "2025-12-08T15:42:50.192702+00:00",
        "meta_object_name": "COSMOS 2251 DEB",
        "meta_object_id": "1993-036AQS",
        "meta_epoch": "2025-11-29T21:54:16.243200",
        "meta_mean_motion": 14.34192363,
        "meta_eccentricity": 0.01464404,
        "meta_inclination": 73.9503,
        "meta_ra_of_asc_node": 201.3539,
        "meta_arg_of_pericenter": 350.3358,
        "meta_mean_anomaly": 9.498,
        "meta_ephemeris_type": 0,
        "meta_classification_type": "U",
        "meta_norad_cat_id": 35721,
        "meta_element_set_no": 999,
        "meta_rev_at_epoch": 57605,
        "meta_bstar": 0.0014885779,
        "meta_mean_motion_dot": 4.68e-05,
        "meta_mean_motion_ddot": 0,
        "tle_line1": "1 35721U 93036AQS 25333.91268800  .00004680  00000+0  14886-2 0  9995",
        "tle_line2": "2 35721  73.9503 201.3539 0146440 350.3358   9.4980 14.34192363576055"
      },
      "geometry": {
        "type": "Point",
        "coordinates": [
          -20.212964674896007,
          56.21135639201315
        ]
      }
    }
  ]
}